{
  "type": "FeatureCollection",
  "features": [
    {
      "type": "Feature",
      "properties": {
        "norad_id": 36994,
        "name": "FENGYUN 1C DEB",
        "group": "fengyun-1c-debris",
        "lat": -64.36690244432265,
        "lon": -41.91137954230199,
        "alt_km": 857.8783678997488,
        "timestamp": "2025-12-02T15:49:07.479112+00:00",
        "meta_object_name": "FENGYUN 1C DEB",
        "meta_object_id": "1999-025ECA",
        "meta_epoch": "2025-12-02T04:02:29.947488",
        "meta_mean_motion": 13.90778611,
        "meta_eccentricity": 0.01150307,
        "meta_inclination": 98.6418,
        "meta_ra_of_asc_node": 299.1542,
        "meta_arg_of_pericenter": 322.4253,
        "meta_mean_anomaly": 36.8909,
        "meta_ephemeris_type": 0,
        "meta_classification_type": "U",
        "meta_norad_cat_id": 36994,
        "meta_element_set_no": 999,
        "meta_rev_at_epoch": 80760,
        "meta_bstar": 0.00021509724,
        "meta_mean_motion_dot": 2.43e-06,
        "meta_mean_motion_ddot": 0,
        "tle_line1": "1 36994U 99025ECA 25336.16840217  .00000243  00000+0  21510-3 0  9994",
        "tle_line2": "2 36994  98.6418 299.1542 0115030 322.4253  36.8909 13.90778611807601"
      },
      "geometry": {
        "type": "Point",
        "coordinates": [
          -41.91137954230199,
          -64.36690244432265
        ]
      }
    },
    {
      "type": "Feature",
      "properties": {
        "norad_id": 36995,
        "name": "FENGYUN 1C DEB",
        "group": "fengyun-1c-debris",
        "lat": 48.734528074462666,
        "lon": -153.45807712022832,
        "alt_km": 862.4212628316427,
        "timestamp": "2025-12-02T15:49:07.479124+00:00",
        "meta_object_name": "FENGYUN 1C DEB",
        "meta_object_id": "1999-025ECB",
        "meta_epoch": "2025-11-29T22:37:55.370208",
        "meta_mean_motion": 14.04864642,
        "meta_eccentricity": 0.00391893,
        "meta_inclination": 98.3442,
        "meta_ra_of_asc_node": 213.6723,
        "meta_arg_of_pericenter": 347.903,
        "meta_mean_anomaly": 12.1195,
        "meta_ephemeris_type": 0,
        "meta_classification_type": "U",
        "meta_norad_cat_id": 36995,
        "meta_element_set_no": 999,
        "meta_rev_at_epoch": 63377,
        "meta_bstar": 0.00012319947,
        "meta_mean_motion_dot": 1.6e-06,
        "meta_mean_motion_ddot": 0,
        "tle_line1": "1 36995U 99025ECB 25333.94300197  .00000160  00000+0  12320-3 0  9993",
        "tle_line2": "2 36995  98.3442 213.6723 0039189 347.9030  12.1195 14.04864642633778"
      },
      "geometry": {
        "type": "Point",
        "coordinates": [
          -153.45807712022832,
          48.734528074462666
        ]
      }
    },
    {
      "type": "Feature",
      "properties": {
        "norad_id": 36996,
        "name": "FENGYUN 1C DEB",
        "group": "fengyun-1c-debris",
        "lat": -80.6789169024888,
        "lon": -168.495260340443,
        "alt_km": 901.3530537558709,
        "timestamp": "2025-12-02T15:49:07.479134+00:00",
        "meta_object_name": "FENGYUN 1C DEB",
        "meta_object_id": "1999-025ECC",
        "meta_epoch": "2025-11-27T05:46:51.154176",
        "meta_mean_motion": 14.11461211,
        "meta_eccentricity": 0.02552856,
        "meta_inclination": 98.2247,
        "meta_ra_of_asc_node": 124.7451,
        "meta_arg_of_pericenter": 33.8599,
        "meta_mean_anomaly": 87.2847,
        "meta_ephemeris_type": 0,
        "meta_classification_type": "U",
        "meta_norad_cat_id": 36996,
        "meta_element_set_no": 999,
        "meta_rev_at_epoch": 59473,
        "meta_bstar": 0.00085126792,
        "meta_mean_motion_dot": 2.056e-05,
        "meta_mean_motion_ddot": 0,
        "tle_line1": "1 36996U 99025ECC 25331.24086984  .00002056  00000+0  85127-3 0  9991",
        "tle_line2": "2 36996  98.2247 124.7451 0255285  33.8599  87.2847 14.11461211594731"
      },
      "geometry": {
        "type": "Point",
        "coordinates": [
          -168.495260340443,
          -80.6789169024888
        ]
      }
    },
    {
      "type": "Feature",
      "properties": {
        "norad_id": 37003,
        "name": "FENGYUN 1C DEB",
        "group": "fengyun-1c-debris",
        "lat": 17.38486010971785,
        "lon": -176.529975419331,
        "alt_km": 844.9294023339817,
        "timestamp": "2025-12-02T15:49:07.479147+00:00",
        "meta_object_name": "FENGYUN 1C DEB",
        "meta_object_id": "1999-025ECK",
        "meta_epoch": "2025-11-29T08:00:12.278880",
        "meta_mean_motion": 13.96183433,
        "meta_eccentricity": 0.00964489,
        "meta_inclination": 98.8482,
        "meta_ra_of_asc_node": 357.4784,
        "meta_arg_of_pericenter": 198.9753,
        "meta_mean_anomaly": 177.4394,
        "meta_ephemeris_type": 0,
        "meta_classification_type": "U",
        "meta_norad_cat_id": 37003,
        "meta_element_set_no": 999,
        "meta_rev_at_epoch": 60470,
        "meta_bstar": 0.00050828845,
        "meta_mean_motion_dot": 6.84e-06,
        "meta_mean_motion_ddot": 0,
        "tle_line1": "1 37003U 99025ECK 25333.33347545  .00000684  00000+0  50829-3 0  9992",
        "tle_line2": "2 37003  98.8482 357.4784 0096448 198.9753 177.4394 13.96183433604708"
      },
      "geometry": {
        "type": "Point",
        "coordinates": [
          -176.529975419331,
          17.38486010971785
        ]
      }
    },
    {
      "type": "Feature",
      "properties": {
        "norad_id": 37006,
        "name": "FENGYUN 1C DEB",
        "group": "fengyun-1c-debris",
        "lat": 19.322442526005247,
        "lon": -139.10304875782265,
        "alt_km": 761.7109076553479,
        "timestamp": "2025-12-02T15:49:07.479157+00:00",
        "meta_object_name": "FENGYUN 1C DEB",
        "meta_object_id": "1999-025ECN",
        "meta_epoch": "2025-11-30T22:17:22.604640",
        "meta_mean_motion": 14.48720025,
        "meta_eccentricity": 0.02561349,
        "meta_inclination": 99.2981,
        "meta_ra_of_asc_node": 222.2839,
        "meta_arg_of_pericenter": 283.324,
        "meta_mean_anomaly": 73.9509,
        "meta_ephemeris_type": 0,
        "meta_classification_type": "U",
        "meta_norad_cat_id": 37006,
        "meta_element_set_no": 999,
        "meta_rev_at_epoch": 64943,
        "meta_bstar": 0.00098281369,
        "meta_mean_motion_dot": 5.562e-05,
        "meta_mean_motion_ddot": 0,
        "tle_line1": "1 37006U 99025ECN 25334.92873385  .00005562  00000+0  98281-3 0  9991",
        "tle_line2": "2 37006  99.2981 222.2839 0256134 283.3240  73.9509 14.48720025649439"
      },
      "geometry": {
        "type": "Point",
        "coordinates": [
          -139.10304875782265,
          19.322442526005247
        ]
      }
    },
    {
      "type": "Feature",
      "properties": {
        "norad_id": 37008,
        "name": "FENGYUN 1C DEB",
        "group": "fengyun-1c-debris",
        "lat": 74.75303226000312,
        "lon": -48.42998377595792,
        "alt_km": 903.9115553243619,
        "timestamp": "2025-12-02T15:49:07.479168+00:00",
        "meta_object_name": "FENGYUN 1C DEB",
        "meta_object_id": "1999-025ECQ",
        "meta_epoch": "2025-12-02T06:48:12.178656",
        "meta_mean_motion": 14.07858743,
        "meta_eccentricity": 0.0061234,
        "meta_inclination": 99.135,
        "meta_ra_of_asc_node": 95.0115,
        "meta_arg_of_pericenter": 282.7077,
        "meta_mean_anomaly": 76.7251,
        "meta_ephemeris_type": 0,
        "meta_classification_type": "U",
        "meta_norad_cat_id": 37008,
        "meta_element_set_no": 999,
        "meta_rev_at_epoch": 60167,
        "meta_bstar": 0.0014906455,
        "meta_mean_motion_dot": 2.526e-05,
        "meta_mean_motion_ddot": 0,
        "tle_line1": "1 37008U 99025ECQ 25336.28347429  .00002526  00000+0  14906-2 0  9997",
        "tle_line2": "2 37008  99.1350  95.0115 0061234 282.7077  76.7251 14.07858743601672"
      },
      "geometry": {
        "type": "Point",
        "coordinates": [
          -48.42998377595792,
          74.75303226000312
        ]
      }
    },
    {
      "type": "Feature",
      "properties": {
        "norad_id": 37017,
        "name": "FENGYUN 1C DEB",
        "group": "fengyun-1c-debris",
        "lat": -38.60932617412678,
        "lon": -72.0210645026945,
        "alt_km": 703.1585461875611,
        "timestamp": "2025-12-02T15:49:07.479178+00:00",
        "meta_object_name": "FENGYUN 1C DEB",
        "meta_object_id": "1999-025ECZ",
        "meta_epoch": "2025-12-02T02:39:25.684416",
        "meta_mean_motion": 14.40374122,
        "meta_eccentricity": 0.02839314,
        "meta_inclination": 98.7881,
        "meta_ra_of_asc_node": 280.3191,
        "meta_arg_of_pericenter": 36.7665,
        "meta_mean_anomaly": 325.2632,
        "meta_ephemeris_type": 0,
        "meta_classification_type": "U",
        "meta_norad_cat_id": 37017,
        "meta_element_set_no": 999,
        "meta_rev_at_epoch": 61008,
        "meta_bstar": 0.0019565669,
        "meta_mean_motion_dot": 9.982e-05,
        "meta_mean_motion_ddot": 0,
        "tle_line1": "1 37017U 99025ECZ 25336.11071394  .00009982  00000+0  19566-2 0  9994",
        "tle_line2": "2 37017  98.7881 280.3191 0283931  36.7665 325.2632 14.40374122610080"
      },
      "geometry": {
        "type": "Point",
        "coordinates": [
          -72.0210645026945,
          -38.60932617412678
        ]
      }
    }
  ]
}